SENTINEL-6              
1 46984U 20086A   23309.45102820 -.00000038  00000+0  98220-4 0  9992
2 46984  66.0413 318.0497 0007920 268.4042  91.6066 12.80930958138161
